STARLINK-31736          
1 59547U 24074P   26068.09466869 -.00003520  00000+0 -11846-3 0  9991
2 59547  43.0078 339.9225 0001472 268.2918  91.7765 15.27578592106000
FLOCK 4G-21             
1 62651U 25009AU  26068.19487675  .00013648  00000+0  49619-3 0  9998
2 62651  97.4032 151.1274 0000465 329.5782  30.5431 15.28381075 63677
